{
  "type": "FeatureCollection",
  "name": "malha_angola_dpa2016",
  "crs": { "type": "name", "properties": { "name": "urn:ogc:def:crs:OGC:1.3:CRS84" } },
  "features": [
    {
      "type": "Feature",
      "properties": {
        "codigo_dpa": "AO-LUA",
        "nome": "Luanda",
        "tipo": "PROVINCIA",
        "versao_dpa": "DPA_2016_18P",
        "capital": "Luanda",
        "regiao": "Norte Litoral",
        "centroide": [13.2343, -8.8368]
      },
      "geometry": {
        "type": "Polygon",
        "coordinates": [[[13.0, -8.6], [13.6, -8.6], [13.6, -9.2], [13.0, -9.2], [13.0, -8.6]]]
      }
    },
    {
      "type": "Feature",
      "properties": {
        "codigo_dpa": "AO-CAB",
        "nome": "Cabinda",
        "tipo": "PROVINCIA",
        "versao_dpa": "DPA_2016_18P",
        "capital": "Cabinda",
        "regiao": "Norte Enclave",
        "centroide": [12.1960, -5.5560]
      },
      "geometry": {
        "type": "Polygon",
        "coordinates": [[[12.0, -5.2], [12.8, -5.2], [12.8, -5.9], [12.0, -5.9], [12.0, -5.2]]]
      }
    },
    {
      "type": "Feature",
      "properties": {
        "codigo_dpa": "AO-ZAI",
        "nome": "Zaire",
        "tipo": "PROVINCIA",
        "versao_dpa": "DPA_2016_18P",
        "capital": "Mbanza Kongo",
        "regiao": "Norte",
        "centroide": [14.2401, -6.2670]
      },
      "geometry": {
        "type": "Polygon",
        "coordinates": [[[12.5, -5.9], [15.0, -5.9], [15.0, -7.5], [12.5, -7.5], [12.5, -5.9]]]
      }
    },
    {
      "type": "Feature",
      "properties": {
        "codigo_dpa": "AO-UIG",
        "nome": "Uíge",
        "tipo": "PROVINCIA",
        "versao_dpa": "DPA_2016_18P",
        "capital": "Uíge",
        "regiao": "Norte",
        "centroide": [15.0583, -7.6152]
      },
      "geometry": {
        "type": "Polygon",
        "coordinates": [[[14.5, -6.8], [16.5, -6.8], [16.5, -8.5], [14.5, -8.5], [14.5, -6.8]]]
      }
    },
    {
      "type": "Feature",
      "properties": {
        "codigo_dpa": "AO-BGO",
        "nome": "Bengo",
        "tipo": "PROVINCIA",
        "versao_dpa": "DPA_2016_18P",
        "capital": "Caxito",
        "regiao": "Norte Litoral",
        "centroide": [13.6644, -8.5785]
      },
      "geometry": {
        "type": "Polygon",
        "coordinates": [[[13.2, -7.8], [14.5, -7.8], [14.5, -9.5], [13.2, -9.5], [13.2, -7.8]]]
      }
    },
    {
      "type": "Feature",
      "properties": {
        "codigo_dpa": "AO-CNN",
        "nome": "Cuanza Norte",
        "tipo": "PROVINCIA",
        "versao_dpa": "DPA_2016_18P",
        "capital": "Ndalatando",
        "regiao": "Centro Norte",
        "centroide": [14.9116, -9.2979]
      },
      "geometry": {
        "type": "Polygon",
        "coordinates": [[[14.2, -8.5], [15.5, -8.5], [15.5, -9.8], [14.2, -9.8], [14.2, -8.5]]]
      }
    },
    {
      "type": "Feature",
      "properties": {
        "codigo_dpa": "AO-CUS",
        "nome": "Cuanza Sul",
        "tipo": "PROVINCIA",
        "versao_dpa": "DPA_2016_18P",
        "capital": "Sumbe",
        "regiao": "Centro Litoral",
        "centroide": [14.8941, -11.2061]
      },
      "geometry": {
        "type": "Polygon",
        "coordinates": [[[13.8, -9.5], [16.2, -9.5], [16.2, -12.0], [13.8, -12.0], [13.8, -9.5]]]
      }
    },
    {
      "type": "Feature",
      "properties": {
        "codigo_dpa": "AO-MAL",
        "nome": "Malanje",
        "tipo": "PROVINCIA",
        "versao_dpa": "DPA_2016_18P",
        "capital": "Malanje",
        "regiao": "Centro Norte",
        "centroide": [16.3410, -9.5402]
      },
      "geometry": {
        "type": "Polygon",
        "coordinates": [[[15.5, -8.0], [18.2, -8.0], [18.2, -11.5], [15.5, -11.5], [15.5, -8.0]]]
      }
    },
    {
      "type": "Feature",
      "properties": {
        "codigo_dpa": "AO-LNO",
        "nome": "Lunda Norte",
        "tipo": "PROVINCIA",
        "versao_dpa": "DPA_2016_18P",
        "capital": "Dundo",
        "regiao": "Leste",
        "centroide": [20.8333, -8.4167]
      },
      "geometry": {
        "type": "Polygon",
        "coordinates": [[[17.5, -7.0], [22.0, -7.0], [22.0, -10.0], [17.5, -10.0], [17.5, -7.0]]]
      }
    },
    {
      "type": "Feature",
      "properties": {
        "codigo_dpa": "AO-LSU",
        "nome": "Lunda Sul",
        "tipo": "PROVINCIA",
        "versao_dpa": "DPA_2016_18P",
        "capital": "Saurimo",
        "regiao": "Leste",
        "centroide": [20.3917, -9.6608]
      },
      "geometry": {
        "type": "Polygon",
        "coordinates": [[[19.0, -9.0], [22.2, -9.0], [22.2, -11.5], [19.0, -11.5], [19.0, -9.0]]]
      }
    },
    {
      "type": "Feature",
      "properties": {
        "codigo_dpa": "AO-BEN",
        "nome": "Benguela",
        "tipo": "PROVINCIA",
        "versao_dpa": "DPA_2016_18P",
        "capital": "Benguela",
        "regiao": "Centro Litoral",
        "centroide": [13.4055, -12.5763]
      },
      "geometry": {
        "type": "Polygon",
        "coordinates": [[[13.0, -11.8], [15.0, -11.8], [15.0, -13.5], [13.0, -13.5], [13.0, -11.8]]]
      }
    },
    {
      "type": "Feature",
      "properties": {
        "codigo_dpa": "AO-HUA",
        "nome": "Huambo",
        "tipo": "PROVINCIA",
        "versao_dpa": "DPA_2016_18P",
        "capital": "Huambo",
        "regiao": "Planalto Central",
        "centroide": [15.7392, -12.7761]
      },
      "geometry": {
        "type": "Polygon",
        "coordinates": [[[15.0, -12.0], [16.5, -12.0], [16.5, -13.6], [15.0, -13.6], [15.0, -12.0]]]
      }
    },
    {
      "type": "Feature",
      "properties": {
        "codigo_dpa": "AO-BIE",
        "nome": "Bié",
        "tipo": "PROVINCIA",
        "versao_dpa": "DPA_2016_18P",
        "capital": "Kuito",
        "regiao": "Planalto Central",
        "centroide": [16.9333, -12.3833]
      },
      "geometry": {
        "type": "Polygon",
        "coordinates": [[[16.2, -11.0], [18.8, -11.0], [18.8, -14.2], [16.2, -14.2], [16.2, -11.0]]]
      }
    },
    {
      "type": "Feature",
      "properties": {
        "codigo_dpa": "AO-MOX",
        "nome": "Moxico",
        "tipo": "PROVINCIA",
        "versao_dpa": "DPA_2016_18P",
        "capital": "Luena",
        "regiao": "Leste",
        "centroide": [19.9167, -13.4500]
      },
      "geometry": {
        "type": "Polygon",
        "coordinates": [[[18.5, -11.0], [24.0, -11.0], [24.0, -15.5], [18.5, -15.5], [18.5, -11.0]]]
      }
    },
    {
      "type": "Feature",
      "properties": {
        "codigo_dpa": "AO-HUI",
        "nome": "Huíla",
        "tipo": "PROVINCIA",
        "versao_dpa": "DPA_2016_18P",
        "capital": "Lubango",
        "regiao": "Sul",
        "centroide": [13.4925, -14.9172]
      },
      "geometry": {
        "type": "Polygon",
        "coordinates": [[[13.2, -13.5], [16.5, -13.5], [16.5, -16.2], [13.2, -16.2], [13.2, -13.5]]]
      }
    },
    {
      "type": "Feature",
      "properties": {
        "codigo_dpa": "AO-NAM",
        "nome": "Namibe",
        "tipo": "PROVINCIA",
        "versao_dpa": "DPA_2016_18P",
        "capital": "Moçâmedes",
        "regiao": "Sul Litoral",
        "centroide": [12.1522, -15.1961]
      },
      "geometry": {
        "type": "Polygon",
        "coordinates": [[[11.7, -13.8], [13.5, -13.8], [13.5, -17.3], [11.7, -17.3], [11.7, -13.8]]]
      }
    },
    {
      "type": "Feature",
      "properties": {
        "codigo_dpa": "AO-CUN",
        "nome": "Cunene",
        "tipo": "PROVINCIA",
        "versao_dpa": "DPA_2016_18P",
        "capital": "Ondjiva",
        "regiao": "Sul Fronteira",
        "centroide": [15.7333, -16.8500]
      },
      "geometry": {
        "type": "Polygon",
        "coordinates": [[[14.5, -15.5], [17.5, -15.5], [17.5, -17.4], [14.5, -17.4], [14.5, -15.5]]]
      }
    },
    {
      "type": "Feature",
      "properties": {
        "codigo_dpa": "AO-CCU",
        "nome": "Cuando Cubango",
        "tipo": "PROVINCIA",
        "versao_dpa": "DPA_2016_18P",
        "capital": "Menongue",
        "regiao": "Sudeste",
        "centroide": [17.6910, -15.4208]
      },
      "geometry": {
        "type": "Polygon",
        "coordinates": [[[16.5, -14.0], [23.5, -14.0], [23.5, -18.0], [16.5, -18.0], [16.5, -14.0]]]
      }
    }
  ]
}
